ONEWEB-0709             
1 55172U 23004AJ  25221.37944085  .00000521  00000+0  14352-2 0  9995
2 55172  87.8791  83.2379 0001295  51.4802 308.6442 13.11415360125012
ONEWEB-0710             
1 55173U 23004AK  25221.56174207  .00000035  00000+0  57500-4 0  9992
2 55173  87.9026  67.8968 0001701  92.1434 267.9892 13.17647573126546
ONEWEB-0711             
1 55174U 23004AL  25221.35060379 -.00000375  00000+0 -10935-2 0  9992
2 55174  87.8791  83.2110 0001653 109.2465 250.8842 13.11418431124970
ONEWEB-0713             
1 55175U 23004AM  25220.68260018  .00000493  00000+0  13555-2 0  9990
2 55175  87.8791  83.3523 0001631  91.3967 268.7347 13.11416400124864
ONEWEB-0715             
1 55176U 23004AN  25221.05898770  .00000437  00000+0  11960-2 0  9991
2 55176  87.8792  83.2775 0001412  76.2252 283.9033 13.11419337124964
ONEWEB-0716             
1 55177U 23004AP  25221.55497398  .00000064  00000+0  13186-3 0  9997
2 55177  87.9026  67.8979 0001951  82.2052 277.9301 13.17650849126541
ONEWEB-0717             
1 55178U 23004AQ  25221.31029565  .00000098  00000+0  21873-3 0  9998
2 55178  87.9031  67.9067 0001495 111.5882 248.5409 13.17650357126566
ONEWEB-0719             
1 55179U 23004AR  25221.54823990  .00000046  00000+0  85482-4 0  9998
2 55179  87.9028  67.8421 0002018  86.5874 273.5488 13.17648435126547
ONEWEB-0530             
1 55796U 23029A   25220.82095302  .00000004  00000+0 -22185-4 0  9994
2 55796  87.9302 336.7252 0002147 113.0847 247.0512 13.20772867119914
ONEWEB-0534             
1 55797U 23029B   25221.56590531  .00000087  00000+0  18247-3 0  9994
2 55797  87.9294 336.5838 0001988  96.9951 263.1409 13.20770052120707
ONEWEB-0556             
1 55798U 23029C   25220.89040578  .00000056  00000+0  10629-3 0  9993
2 55798  87.9298 336.7110 0002728 102.4596 257.6843 13.20772813119927
ONEWEB-0562             
1 55799U 23029D   25221.02930818  .00000036  00000+0  57639-4 0  9996
2 55799  87.9290 336.6741 0002611 116.0603 244.0799 13.20772426120629
ONEWEB-0563             
1 55800U 23029E   25221.02299839  .00000021  00000+0  19345-4 0  9996
2 55800  87.9300 336.6929 0002098  94.8486 265.2887 13.20772728120610
ONEWEB-0564             
1 55801U 23029F   25221.24394740  .00000017  00000+0  10033-4 0  9998
2 55801  87.9288 336.6341 0002092 109.6842 250.4517 13.20772389120685
ONEWEB-0638             
1 55802U 23029G   25221.08180162 -.00000258  00000+0 -73134-3 0  9991
2 55802  87.9084 351.8776 0002369 101.6700 258.4695 13.14503382119101
ONEWEB-0639             
1 55803U 23029H   25221.12162111  .00000065  00000+0  12897-3 0  9994
2 55803  87.9248   7.0210 0002239  64.5289 295.6075 13.19724239118433
ONEWEB-0640             
1 55804U 23029J   25221.31965418 -.00000339  00000+0 -94986-3 0  9992
2 55804  87.9080 351.8172 0002541  92.5300 267.6121 13.14502663119124
ONEWEB-0641             
1 55805U 23029K   25221.11688464  .00000085  00000+0  18091-3 0  9993
2 55805  87.9250   6.9934 0001847  88.4176 271.7168 13.19725453118441
ONEWEB-0642             
1 55806U 23029L   25221.18796864  .00000055  00000+0  10586-3 0  9993
2 55806  87.9242   7.0160 0001839  65.9619 294.1706 13.19726175118448
ONEWEB-0643             
1 55807U 23029M   25221.06117604  .00000109  00000+0  25887-3 0  9990
2 55807  87.9083 351.8514 0001453  74.2339 285.8951 13.14501545119097
ONEWEB-0644             
1 55808U 23029N   25221.10740729  .00000049  00000+0  89083-4 0  9998
2 55808  87.9249   7.0381 0001766  78.3990 281.7341 13.19726268118430
ONEWEB-0645             
1 55809U 23029P   25221.10346462 -.00000019  00000+0 -80212-4 0  9999
2 55809  87.9233   7.0294 0002091  89.2170 270.9202 13.19725186118434
ONEWEB-0646             
1 55810U 23029Q   25221.13389813 -.00030334  00000+0 -76367-1 0  9997
2 55810  87.9237   7.0145 0002003  88.8071 271.3291 13.19447454118424
ONEWEB-0648             
1 55811U 23029R   25221.10560118  .00000022  00000+0  25500-4 0  9999
2 55811  87.9070 351.8175 0002287  73.5582 286.5798 13.14501901119104
ONEWEB-0649             
1 55812U 23029S   25221.09635267 -.00000009  00000+0 -55533-4 0  9992
2 55812  87.9243   7.0166 0002010  81.7776 278.3585 13.19724464118453
ONEWEB-0650             
1 55813U 23029T   25221.16742926  .00000001  00000+0 -29989-4 0  9999
2 55813  87.9247   7.0133 0001792  88.8215 271.3123 13.19724462118431
ONEWEB-0652             
1 55814U 23029U   25221.08654252 -.00000279  00000+0 -78670-3 0  9993
2 55814  87.9083 351.8323 0001843 102.8173 257.3163 13.14500277119056
ONEWEB-0653             
1 55815U 23029V   25221.07070518 -.00000107  00000+0 -32346-3 0  9990
2 55815  87.9078 351.8249 0002032 101.3021 258.8337 13.14502356119087
ONEWEB-0654             
1 55816U 23029W   25221.14205998  .00000059  00000+0  12371-3 0  9991
2 55816  87.9075 351.8097 0001932 109.4650 250.6689 13.14502715119114
ONEWEB-0656             
1 55817U 23029X   25221.08611151 -.00000039  00000+0 -12870-3 0  9991
2 55817  87.9298 336.6096 0002037 112.2994 247.8355 13.20770471120632
ONEWEB-0657             
1 55818U 23029Y   25221.16268319 -.00000033  00000+0 -11516-3 0  9995
2 55818  87.9246   7.0187 0001232 114.6424 245.4837 13.19726817118433
ONEWEB-0658             
1 55819U 23029Z   25221.46121954  .00000059  00000+0  11389-3 0  9996
2 55819  87.9252   6.8938 0001750  79.7084 280.4246 13.19724560118481
ONEWEB-0660             
1 55820U 23029AA  25221.11986541  .00000144  00000+0  35266-3 0  9996
2 55820  87.9077 351.7853 0002128  91.5754 268.5619 13.14501614119112
ONEWEB-0661             
1 55821U 23029AB  25221.15474692 -.00000187  00000+0 -53765-3 0  9993
2 55821  87.9080 351.8500 0002173  93.7886 266.3492 13.14502357119083
ONEWEB-0662             
1 55822U 23029AC  25220.88516431  .00000664  00000+0  17562-2 0  9993
2 55822  87.9079 351.9104 0002346  90.7061 269.4338 13.14499697118407
ONEWEB-0663             
1 55823U 23029AD  25220.83716710  .00000005  00000+0 -19903-4 0  9994
2 55823  87.9312 336.7144 0002120  87.1545 272.9831 13.20842062119919
ONEWEB-0664             
1 55824U 23029AE  25221.07348743  .00000022  00000+0  23269-4 0  9997
2 55824  87.9304 336.6893 0002287 102.1298 258.0092 13.20772061120634
ONEWEB-0665             
1 55825U 23029AF  25221.07544955 -.00000184  00000+0 -53182-3 0  9998
2 55825  87.9084 351.8402 0001983  90.8125 269.3232 13.14504602119095
ONEWEB-0666             
1 55826U 23029AG  25221.14292183 -.00000008  00000+0 -50590-4 0  9996
2 55826  87.9302 336.6641 0001454 120.3302 239.7975 13.20772541120648
ONEWEB-0667             
1 55827U 23029AH  25221.13662673  .00000009  00000+0 -10293-4 0  9997
2 55827  87.9296 336.5942 0002052  94.6359 265.5009 13.20772702120637
ONEWEB-0669             
1 55828U 23029AJ  25220.82886179  .00000055  00000+0  10230-3 0  9992
2 55828  87.9301 336.6932 0002274 115.4640 244.6728 13.20771325119911
ONEWEB-0670             
1 55829U 23029AK  25221.12935857  .00000235  00000+0  60068-3 0  9999
2 55829  87.9087 351.8494 0002250  96.1221 264.0165 13.14504967119122
ONEWEB-0671             
1 55830U 23029AL  25221.15321185  .00000021  00000+0  19677-4 0  9991
2 55830  87.9247   7.0130 0002057  92.9987 267.1381 13.19726487118432
ONEWEB-0672             
1 55831U 23029AM  25220.82411534  .00000053  00000+0  98832-4 0  9998
2 55831  87.9296 336.6798 0001777 107.7721 252.3606 13.20770420119915
ONEWEB-0673             
1 55832U 23029AN  25221.12952439  .00000013  00000+0  59619-6 0  9995
2 55832  87.9250   6.9815 0001795  88.7298 271.4041 13.19725774118453
ONEWEB-0674             
1 55833U 23029AP  25221.09766991 -.00000126  00000+0 -37521-3 0  9990
2 55833  87.9080 351.8399 0002353  98.8057 261.3339 13.14502740119090
ONEWEB-0675             
1 55834U 23029AQ  25221.14532403  .00000054  00000+0  10345-3 0  9999
2 55834  87.9244   7.0256 0001498  96.6043 263.5260 13.19725761118478
ONEWEB-0720             
1 55835U 23029AR  25221.21323857  .00000111  00000+0  24595-3 0  9995
2 55835  87.9242   7.0095 0001976  83.2152 276.9206 13.19724261118384
ONEWEB-0537             
1 56046U 23043A   25220.92307450 -.00000108  00000+0 -31731-3 0  9992
2 56046  87.9045 291.0055 0001839 101.4506 258.6832 13.16591868117872
ONEWEB-0538             
1 56047U 23043B   25221.44873561 -.00000014  00000+0 -69469-4 0  9998
2 56047  87.9037 290.9156 0001786  93.5828 266.5507 13.16593887118863
ONEWEB-0546             
1 56048U 23043C   25221.13207687  .00000113  00000+0  26279-3 0  9994
2 56048  87.9048 290.9573 0001730 117.6643 242.4663 13.16594492118815
ONEWEB-0547             
1 56049U 23043D   25221.00178518  .00000003  00000+0 -24523-4 0  9991
2 56049  87.9265 306.2623 0001879  92.4936 267.6413 13.21824315117898
ONEWEB-0548             
1 56050U 23043E   25221.15740328  .00000088  00000+0  19622-3 0  9998
2 56050  87.9031 290.9813 0002488 100.4966 259.6445 13.16591856118815
ONEWEB-0549             
1 56051U 23043F   25220.76601692 -.00000016  00000+0 -70406-4 0  9996
2 56051  87.9267 306.3236 0001869  90.4070 269.7278 13.21824095116953
ONEWEB-0550             
1 56052U 23043G   25220.75341624  .00000368  00000+0  85958-3 0  9997
2 56052  87.9270 306.3200 0002499  95.4801 264.6618 13.21821623116952
ONEWEB-0551             
1 56053U 23043H   25221.24413311  .00000021  00000+0  21862-4 0  9997
2 56053  87.9078 321.4543 0001916  92.0044 268.1306 13.15548045116299
ONEWEB-0552             
1 56054U 23043J   25220.74709680  .00000047  00000+0  82678-4 0  9999
2 56054  87.9267 306.3300 0002143  91.1419 268.9960 13.21826791116953
ONEWEB-0553             
1 56055U 23043K   25221.44238826  .00000082  00000+0  18085-3 0  9996
2 56055  87.9037 290.9153 0002004 108.5243 251.6106 13.16593178118864
ONEWEB-0554             
1 56056U 23043L   25221.20173594 -.00001649  00000+0 -43463-2 0  9990
2 56056  87.9032 290.9897 0002010 101.1374 258.9983 13.16604167118815
